{
  "type": "FeatureCollection",
  "features": [
    {
      "type": "Feature",
      "properties": {
        "norad_id": 28899,
        "name": "INMARSAT 4-F2 (SOUTHPAN/PRN 122)",
        "group": "gnss",
        "lat": -4.353710240524796,
        "lon": -73.15625898517473,
        "alt_km": 35776.21749370859,
        "timestamp": "2025-12-16T03:53:27.296984+00:00",
        "meta_object_name": "INMARSAT 4-F2 (SOUTHPAN/PRN 122)",
        "meta_object_id": "2005-044A",
        "meta_epoch": "2025-12-15T07:11:51.608832",
        "meta_mean_motion": 1.00271463,
        "meta_eccentricity": 0.00026564,
        "meta_inclination": 4.856,
        "meta_ra_of_asc_node": 43.6985,
        "meta_arg_of_pericenter": 223.8404,
        "meta_mean_anomaly": 68.1363,
        "meta_ephemeris_type": 0,
        "meta_classification_type": "U",
        "meta_norad_cat_id": 28899,
        "meta_element_set_no": 999,
        "meta_rev_at_epoch": 7367,
        "meta_bstar": 0,
        "meta_mean_motion_dot": -2.43e-06,
        "meta_mean_motion_ddot": 0,
        "tle_line1": "1 28899U 05044A   25349.29990288 -.00000243  00000+0  00000+0 0  9997",
        "tle_line2": "2 28899   4.8560  43.6985 0002656 223.8404  68.1363  1.00271463 73672"
      },
      "geometry": {
        "type": "Point",
        "coordinates": [
          -73.15625898517473,
          -4.353710240524796
        ]
      }
    },
    {
      "type": "Feature",
      "properties": {
        "norad_id": 29486,
        "name": "GPS BIIRM-2 (PRN 31)",
        "group": "gnss",
        "lat": 51.523540365841036,
        "lon": -84.53336200736227,
        "alt_km": 20008.459300596234,
        "timestamp": "2025-12-16T03:53:27.296998+00:00",
        "meta_object_name": "GPS BIIRM-2 (PRN 31)",
        "meta_object_id": "2006-042A",
        "meta_epoch": "2025-12-15T05:33:13.829184",
        "meta_mean_motion": 2.00554094,
        "meta_eccentricity": 0.01073367,
        "meta_inclination": 54.6944,
        "meta_ra_of_asc_node": 158.6418,
        "meta_arg_of_pericenter": 52.0177,
        "meta_mean_anomaly": 101.3076,
        "meta_ephemeris_type": 0,
        "meta_classification_type": "U",
        "meta_norad_cat_id": 29486,
        "meta_element_set_no": 999,
        "meta_rev_at_epoch": 14070,
        "meta_bstar": 0,
        "meta_mean_motion_dot": 9.8e-07,
        "meta_mean_motion_ddot": 0,
        "tle_line1": "1 29486U 06042A   25349.23141006  .00000098  00000+0  00000+0 0  9996",
        "tle_line2": "2 29486  54.6944 158.6418 0107336  52.0177 101.3076  2.00554094140707"
      },
      "geometry": {
        "type": "Point",
        "coordinates": [
          -84.53336200736227,
          51.523540365841036
        ]
      }
    },
    {
      "type": "Feature",
      "properties": {
        "norad_id": 29601,
        "name": "GPS BIIRM-3 (PRN 12)",
        "group": "gnss",
        "lat": 12.921379587232652,
        "lon": 32.01716198090937,
        "alt_km": 20124.333288050708,
        "timestamp": "2025-12-16T03:53:27.297011+00:00",
        "meta_object_name": "GPS BIIRM-3 (PRN 12)",
        "meta_object_id": "2006-052A",
        "meta_epoch": "2025-12-11T22:46:47.068032",
        "meta_mean_motion": 2.00573524,
        "meta_eccentricity": 0.00877389,
        "meta_inclination": 54.9707,
        "meta_ra_of_asc_node": 221.4296,
        "meta_arg_of_pericenter": 87.4221,
        "meta_mean_anomaly": 273.6564,
        "meta_ephemeris_type": 0,
        "meta_classification_type": "U",
        "meta_norad_cat_id": 29601,
        "meta_element_set_no": 999,
        "meta_rev_at_epoch": 13965,
        "meta_bstar": 0,
        "meta_mean_motion_dot": 9e-08,
        "meta_mean_motion_ddot": 0,
        "tle_line1": "1 29601U 06052A   25345.94915588  .00000009  00000+0  00000+0 0  9996",
        "tle_line2": "2 29601  54.9707 221.4296 0087738  87.4221 273.6564  2.00573524139650"
      },
      "geometry": {
        "type": "Point",
        "coordinates": [
          32.01716198090937,
          12.921379587232652
        ]
      }
    },
    {
      "type": "Feature",
      "properties": {
        "norad_id": 32260,
        "name": "GPS BIIRM-4 (PRN 15)",
        "group": "gnss",
        "lat": -43.3225795881563,
        "lon": 44.313141257491196,
        "alt_km": 20533.58717382801,
        "timestamp": "2025-12-16T03:53:27.297024+00:00",
        "meta_object_name": "GPS BIIRM-4 (PRN 15)",
        "meta_object_id": "2007-047A",
        "meta_epoch": "2025-12-13T18:00:56.680128",
        "meta_mean_motion": 2.00564495,
        "meta_eccentricity": 0.0164139,
        "meta_inclination": 53.9559,
        "meta_ra_of_asc_node": 87.7167,
        "meta_arg_of_pericenter": 85.2596,
        "meta_mean_anomaly": 276.6041,
        "meta_ephemeris_type": 0,
        "meta_classification_type": "U",
        "meta_norad_cat_id": 32260,
        "meta_element_set_no": 999,
        "meta_rev_at_epoch": 13309,
        "meta_bstar": 0,
        "meta_mean_motion_dot": -4.4e-07,
        "meta_mean_motion_ddot": 0,
        "tle_line1": "1 32260U 07047A   25347.75065602 -.00000044  00000+0  00000+0 0  9990",
        "tle_line2": "2 32260  53.9559  87.7167 0164139  85.2596 276.6041  2.00564495133093"
      },
      "geometry": {
        "type": "Point",
        "coordinates": [
          44.313141257491196,
          -43.3225795881563
        ]
      }
    },
    {
      "type": "Feature",
      "properties": {
        "norad_id": 32275,
        "name": "COSMOS 2433 (720)",
        "group": "gnss",
        "lat": -15.680429032439255,
        "lon": 149.37064595320692,
        "alt_km": 19124.513778303994,
        "timestamp": "2025-12-16T03:53:27.297036+00:00",
        "meta_object_name": "COSMOS 2433 (720)",
        "meta_object_id": "2007-052A",
        "meta_epoch": "2025-12-14T23:11:38.676768",
        "meta_mean_motion": 2.13103946,
        "meta_eccentricity": 0.00054528,
        "meta_inclination": 65.6819,
        "meta_ra_of_asc_node": 322.1306,
        "meta_arg_of_pericenter": 253.3284,
        "meta_mean_anomaly": 106.6099,
        "meta_ephemeris_type": 0,
        "meta_classification_type": "U",
        "meta_norad_cat_id": 32275,
        "meta_element_set_no": 999,
        "meta_rev_at_epoch": 14113,
        "meta_bstar": 0,
        "meta_mean_motion_dot": -6.5e-07,
        "meta_mean_motion_ddot": 0,
        "tle_line1": "1 32275U 07052A   25348.96641987 -.00000065  00000+0  00000+0 0  9995",
        "tle_line2": "2 32275  65.6819 322.1306 0005452 253.3284 106.6099  2.13103946141136"
      },
      "geometry": {
        "type": "Point",
        "coordinates": [
          149.37064595320692,
          -15.680429032439255
        ]
      }
    },
    {
      "type": "Feature",
      "properties": {
        "norad_id": 32276,
        "name": "COSMOS 2432 (719)",
        "group": "gnss",
        "lat": 34.3593576217285,
        "lon": 124.2100027487164,
        "alt_km": 19154.25338752803,
        "timestamp": "2025-12-16T03:53:27.297048+00:00",
        "meta_object_name": "COSMOS 2432 (719)",
        "meta_object_id": "2007-052B",
        "meta_epoch": "2025-12-15T06:31:38.583840",
        "meta_mean_motion": 2.13103103,
        "meta_eccentricity": 0.00112605,
        "meta_inclination": 65.6973,
        "meta_ra_of_asc_node": 322.2446,
        "meta_arg_of_pericenter": 312.4858,
        "meta_mean_anomaly": 226.3212,
        "meta_ephemeris_type": 0,
        "meta_classification_type": "U",
        "meta_norad_cat_id": 32276,
        "meta_element_set_no": 999,
        "meta_rev_at_epoch": 14116,
        "meta_bstar": 0,
        "meta_mean_motion_dot": -6.6e-07,
        "meta_mean_motion_ddot": 0,
        "tle_line1": "1 32276U 07052B   25349.27197435 -.00000066  00000+0  00000+0 0  9996",
        "tle_line2": "2 32276  65.6973 322.2446 0011260 312.4858 226.3212  2.13103103141167"
      },
      "geometry": {
        "type": "Point",
        "coordinates": [
          124.2100027487164,
          34.3593576217285
        ]
      }
    },
    {
      "type": "Feature",
      "properties": {
        "norad_id": 32384,
        "name": "GPS BIIRM-5 (PRN 29)",
        "group": "gnss",
        "lat": 51.38050901690501,
        "lon": -18.037675533099662,
        "alt_km": 20175.0163301414,
        "timestamp": "2025-12-16T03:53:27.297060+00:00",
        "meta_object_name": "GPS BIIRM-5 (PRN 29)",
        "meta_object_id": "2007-062A",
        "meta_epoch": "2025-12-15T07:18:28.711872",
        "meta_mean_motion": 2.00577504,
        "meta_eccentricity": 0.00322412,
        "meta_inclination": 55.1799,
        "meta_ra_of_asc_node": 281.543,
        "meta_arg_of_pericenter": 162.3611,
        "meta_mean_anomaly": 10.7934,
        "meta_ephemeris_type": 0,
        "meta_classification_type": "U",
        "meta_norad_cat_id": 32384,
        "meta_element_set_no": 999,
        "meta_rev_at_epoch": 13182,
        "meta_bstar": 0,
        "meta_mean_motion_dot": -7.4e-07,
        "meta_mean_motion_ddot": 0,
        "tle_line1": "1 32384U 07062A   25349.30449898 -.00000074  00000+0  00000+0 0  9993",
        "tle_line2": "2 32384  55.1799 281.5430 0032241 162.3611  10.7934  2.00577504131822"
      },
      "geometry": {
        "type": "Point",
        "coordinates": [
          -18.037675533099662,
          51.38050901690501
        ]
      }
    }
  ]
}